0 COSMOS 2251 DEB
1 36550U 93036BDL 13281.53887139  .00000718  00000-0  35180-3 0  2752
2 36550 074.0462 235.7030 0091203 277.3212 081.7572 14.17511379214852
0 COSMOS 2251 DEB
1 36550U 93036BDL 13283.51494251  .00000804  00000-0  39282-3 0  2765
2 36550 074.0455 232.1856 0090580 273.5788 085.5268 14.17516263215137
0 COSMOS 2251 DEB
1 36550U 93036BDL 13286.19673352  .00000871  00000-0  42396-3 0  2778
2 36550 074.0466 227.4118 0091383 268.2959 090.7774 14.17522370215518
0 COSMOS 2251 DEB
1 36550U 93036BDL 13287.18476147  .00000904  00000-0  43989-3 0  2788
2 36550 074.0504 225.6501 0091251 265.4676 093.6229 14.17524884215650
0 COSMOS 2251 DEB
1 36550U 93036BDL 13289.23138605  .00000915  00000-0  44475-3 0  2794
2 36550 074.0504 222.0081 0091166 261.3200 097.7589 14.17528756215945
0 COSMOS 2251 DEB
1 36550U 93036BDL 13291.48973157  .00000906  00000-0  44080-3 0  2807
2 36550 074.0502 217.9897 0091022 256.8995 102.1985 14.17532742216269
0 COSMOS 2251 DEB
1 36550U 93036BDL 13294.17150722  .00000902  00000-0  43882-3 0  2817
2 36550 074.0500 213.2161 0090909 251.3563 107.7700 14.17537675216642
